OBJECT_NAME,OBJECT_ID,EPOCH,MEAN_MOTION,ECCENTRICITY,INCLINATION,RA_OF_ASC_NODE,ARG_OF_PERICENTER,MEAN_ANOMALY,EPHEMERIS_TYPE,CLASSIFICATION_TYPE,NORAD_CAT_ID,ELEMENT_SET_NO,REV_AT_EPOCH,BSTAR,MEAN_MOTION_DOT,MEAN_MOTION_DDOT
STARLINK-30506,2023-158X,2026-06-28T22:44:50.036640,15.27575154,.00013851,43.0017,118.8681,261.9476,98.1219,0,U,58072,999,15058,-.3944762E-4,-.1347E-4,0
YUNHAI-1 04,2023-159A,2026-06-28T22:54:17.053056,14.32737490,.0001936,98.4969,205.4741,123.2394,236.8976,0,U,58073,999,14148,.12093959E-3,.286E-5,0
STARLINK-30604,2023-160A,2026-06-28T16:31:54.353856,15.27572718,.00016705,43.0044,170.8646,278.6827,81.3835,0,U,58075,999,14992,.50161658E-4,.1118E-4,0
STARLINK-30500,2023-160B,2026-06-28T16:50:25.581408,15.27567580,.00015212,43.0038,170.9514,287.4154,72.6532,0,U,58076,999,14992,-.18196261E-4,-.763E-5,0
STARLINK-30613,2023-160C,2026-06-28T22:57:47.268576,15.27572626,.00012539,43.0031,169.4365,278.0304,82.0405,0,U,58077,999,14997,.63037259E-4,.1473E-4,0
STARLINK-30597,2023-160D,2026-06-28T16:20:49.180128,15.27561503,.0001072,43.0017,170.7891,270.7203,89.3526,0,U,58078,999,14992,-.15086522E-4,-.677E-5,0
STARLINK-30598,2023-160E,2026-06-28T23:03:22.396896,15.27552607,.00007589,43.0009,169.4650,329.6048,30.4760,0,U,58079,999,14996,-.34750939E-4,-.1217E-4,0
STARLINK-30603,2023-160F,2026-06-28T23:08:55.176864,15.27554285,.00032004,43.0101,169.4873,264.3623,95.6864,0,U,58080,999,14996,-.21949859E-4,-.867E-5,0
STARLINK-30602,2023-160G,2026-06-28T10:02:23.847648,15.26118089,.00007922,42.9966,175.6939,316.8565,43.2224,0,U,58081,999,14984,.63163088E-3,.16405E-3,0
STARLINK-30610,2023-160H,2026-06-28T15:55:06.686112,15.27580749,.00011992,43.0008,171.5222,270.4131,89.6584,0,U,58082,999,14991,.5928347E-5,-.99E-6,0
STARLINK-30551,2023-160J,2026-06-28T23:02:37.696992,15.27563812,.00010644,43.0037,172.8567,282.8937,77.1796,0,U,58083,999,14992,-.22568716E-4,-.883E-5,0
STARLINK-30586,2023-160K,2026-06-28T16:51:33.125472,15.27571875,.00016638,43.0039,174.3641,304.5442,55.5252,0,U,58084,999,14988,-.1529017E-5,-.304E-5,0
STARLINK-30609,2023-160L,2026-06-28T23:13:43.728672,15.27572594,.00014827,43.0028,172.9187,276.3543,83.7140,0,U,58085,999,14992,.33997782E-4,.673E-5,0
STARLINK-30583,2023-160M,2026-06-28T17:02:39.192576,15.27576359,.0001164,43.0021,174.4256,295.0590,65.0141,0,U,58086,999,14988,.70472274E-4,.1677E-4,0
STARLINK-30557,2023-160N,2026-06-28T17:08:12.817536,15.27533791,.00010982,43.0041,174.4493,275.4289,84.6437,0,U,58087,999,14988,.39384254E-3,.10576E-3,0
STARLINK-30591,2023-160P,2026-06-28T16:17:06.415008,15.27572311,.00012527,42.9991,170.7762,280.3898,79.6813,0,U,58088,999,14992,.53050515E-4,.1198E-4,0
STARLINK-30584,2023-160Q,2026-06-28T22:54:05.544576,15.27562152,.00017798,43.0046,169.4064,266.0832,93.9816,0,U,58089,999,14996,-.27279041E-4,-.1012E-4,0
STARLINK-30590,2023-160R,2026-06-28T10:58:58.624608,15.27568563,.00009596,43.0007,175.9434,243.4850,116.5903,0,U,58090,999,14984,.5361966E-5,-.114E-5,0
STARLINK-30608,2023-160S,2026-06-28T10:43:02.114400,15.27577187,.00017651,43.0022,172.4776,266.1771,93.8878,0,U,58091,999,14988,.75183719E-4,.1807E-4,0
STARLINK-30615,2023-160T,2026-06-28T16:11:45.907296,15.27571960,.00012736,43.0005,171.6004,270.7651,89.3055,0,U,58092,999,14991,.47193948E-4,.1037E-4,0
STARLINK-30578,2023-160U,2026-06-28T16:35:36.366432,15.27573152,.00010246,43.0028,170.8680,275.3913,84.6821,0,U,58093,999,14992,.19966849E-4,.287E-5,0
STARLINK-30574,2023-160V,2026-06-28T22:46:41.615328,15.27579430,.00012179,43.0038,169.3642,294.2481,65.8244,0,U,58094,999,14996,.11977769E-3,.3035E-4,0
STARLINK-30570,2023-160W,2026-06-28T16:44:51.610848,15.27572384,.00014784,43.0042,170.9205,266.5347,93.5336,0,U,58095,999,14992,.36756784E-4,.749E-5,0
STARLINK-30581,2023-160X,2026-06-28T23:18:07.893216,15.27583134,.00003805,43.0007,169.5195,226.8646,133.2174,0,U,58096,999,14996,.60880003E-4,.1414E-4,0
STARLINK-30594,2023-161A,2026-06-28T19:44:20.815296,15.34394508,.00010002,53.1614,8.8345,100.6085,259.5030,0,U,58097,999,15144,-.1277776E-5,-.419E-5,0
STARLINK-30614,2023-161B,2026-06-28T21:36:19.605024,15.34388258,.00012583,53.1625,8.6046,84.9111,275.2035,0,U,58098,999,15145,.88981246E-4,.263E-4,0
STARLINK-30607,2023-161C,2026-06-28T19:12:36.757152,15.30202891,.00010042,53.1619,359.4056,105.9718,254.1393,0,U,58099,999,15156,.21899658E-4,.29E-5,0
STARLINK-30600,2023-161D,2026-06-28T22:12:32.785344,15.34396974,.00010965,53.1606,8.0436,103.0813,257.0312,0,U,58100,999,15146,.10288676E-3,.3101E-4,0
STARLINK-30605,2023-161E,2026-06-28T22:00:01.999584,15.34369391,.00016744,53.1608,8.6663,69.7728,311.5750,0,U,58101,999,581,.12341722E-2,.41513E-3,0
STARLINK-30592,2023-161F,2026-06-28T22:18:36.346176,15.34393340,.00010924,53.1611,8.0786,80.9567,279.1559,0,U,58102,999,15146,.58020754E-4,.1584E-4,0
