STARLINK-30506          
1 58072U 23158X   26179.94780135 -.00001347  00000+0 -39448-4 0  9991
2 58072  43.0017 118.8681 0001385 261.9476  98.1219 15.27575154150585
YUNHAI-1 04             
1 58073U 23159A   26179.95436404  .00000286  00000+0  12094-3 0  9997
2 58073  98.4969 205.4741 0001936 123.2394 236.8976 14.32737490141485
STARLINK-30604          
1 58075U 23160A   26179.68882354  .00001118  00000+0  50162-4 0  9994
2 58075  43.0044 170.8646 0001670 278.6827  81.3835 15.27572718149926
STARLINK-30500          
1 58076U 23160B   26179.70168497 -.00000763  00000+0 -18196-4 0  9991
2 58076  43.0038 170.9514 0001521 287.4154  72.6532 15.27567580149929
STARLINK-30613          
1 58077U 23160C   26179.95679709  .00001473  00000+0  63037-4 0  9993
2 58077  43.0031 169.4365 0001253 278.0304  82.0405 15.27572626149971
STARLINK-30597          
1 58078U 23160D   26179.68112477 -.00000677  00000+0 -15087-4 0  9997
2 58078  43.0017 170.7891 0001072 270.7203  89.3526 15.27561503149922
STARLINK-30598          
1 58079U 23160E   26179.96067589 -.00001217  00000+0 -34751-4 0  9992
2 58079  43.0009 169.4650 0000758 329.6048  30.4760 15.27552607149969
STARLINK-30603          
1 58080U 23160F   26179.96452751 -.00000867  00000+0 -21950-4 0  9990
2 58080  43.0101 169.4873 0003200 264.3623  95.6864 15.27554285149962
STARLINK-30602          
1 58081U 23160G   26179.41833157  .00016405  00000+0  63163-3 0  9998
2 58081  42.9966 175.6939 0000792 316.8565  43.2224 15.26118089149846
STARLINK-30610          
1 58082U 23160H   26179.66327183 -.00000099  00000+0  59283-5 0  9996
2 58082  43.0008 171.5222 0001199 270.4131  89.6584 15.27580749149910
STARLINK-30551          
1 58083U 23160J   26179.96015853 -.00000883  00000+0 -22569-4 0  9996
2 58083  43.0037 172.8567 0001064 282.8937  77.1796 15.27563812149921
STARLINK-30586          
1 58084U 23160K   26179.70246673 -.00000304  00000+0 -15290-5 0  9997
2 58084  43.0039 174.3641 0001663 304.5442  55.5252 15.27571875149882
STARLINK-30609          
1 58085U 23160L   26179.96786723  .00000673  00000+0  33998-4 0  9992
2 58085  43.0028 172.9187 0001482 276.3543  83.7140 15.27572594149920
STARLINK-30583          
1 58086U 23160M   26179.71017584  .00001677  00000+0  70472-4 0  9991
2 58086  43.0021 174.4256 0001164 295.0590  65.0141 15.27576359149887
STARLINK-30557          
1 58087U 23160N   26179.71403724  .00010576  00000+0  39384-3 0  9991
2 58087  43.0041 174.4493 0001098 275.4289  84.6437 15.27533791149884
STARLINK-30591          
1 58088U 23160P   26179.67854647  .00001198  00000+0  53051-4 0  9999
2 58088  42.9991 170.7762 0001252 280.3898  79.6813 15.27572311149926
STARLINK-30584          
1 58089U 23160Q   26179.95423084 -.00001012  00000+0 -27279-4 0  9998
2 58089  43.0046 169.4064 0001779 266.0832  93.9816 15.27562152149961
STARLINK-30590          
1 58090U 23160R   26179.45762297 -.00000114  00000+0  53620-5 0  9998
2 58090  43.0007 175.9434 0000959 243.4850 116.5903 15.27568563149849
STARLINK-30608          
1 58091U 23160S   26179.44655225  .00001807  00000+0  75184-4 0  9997
2 58091  43.0022 172.4776 0001765 266.1771  93.8878 15.27577187149882
STARLINK-30615          
1 58092U 23160T   26179.67483689  .00001037  00000+0  47194-4 0  9991
2 58092  43.0005 171.6004 0001273 270.7651  89.3055 15.27571960149915
STARLINK-30578          
1 58093U 23160U   26179.69139313  .00000287  00000+0  19967-4 0  9999
2 58093  43.0028 170.8680 0001024 275.3913  84.6821 15.27573152149923
STARLINK-30574          
1 58094U 23160V   26179.94909277  .00003035  00000+0  11978-3 0  9999
2 58094  43.0038 169.3642 0001217 294.2481  65.8244 15.27579430149969
STARLINK-30570          
1 58095U 23160W   26179.69781957  .00000749  00000+0  36757-4 0  9997
2 58095  43.0042 170.9205 0001478 266.5347  93.5336 15.27572384149927
STARLINK-30581          
1 58096U 23160X   26179.97092469  .00001414  00000+0  60880-4 0  9996
2 58096  43.0007 169.5195 0000380 226.8646 133.2174 15.27583134149964
STARLINK-30594          
1 58097U 23161A   26179.82246314 -.00000419  00000+0 -12778-5 0  9992
2 58097  53.1614   8.8345 0001000 100.6085 259.5030 15.34394508151441
STARLINK-30614          
1 58098U 23161B   26179.90022691  .00002630  00000+0  88981-4 0  9995
2 58098  53.1625   8.6046 0001258  84.9111 275.2035 15.34388258151455
STARLINK-30607          
1 58099U 23161C   26179.80042543  .00000290  00000+0  21900-4 0  9991
2 58099  53.1619 359.4056 0001004 105.9718 254.1393 15.30202891151562
STARLINK-30600          
1 58100U 23161D   26179.92537946  .00003101  00000+0  10289-3 0  9994
2 58100  53.1606   8.0436 0001096 103.0813 257.0312 15.34396974151468
STARLINK-30605          
1 58101U 23161E   26179.91668981  .00041513  00000+0  12342-2 0  9998
2 58101  53.1608   8.6663 0001674  69.7728 311.5750 15.34369391  5816
STARLINK-30592          
1 58102U 23161F   26179.92958734  .00001584  00000+0  58021-4 0  9998
2 58102  53.1611   8.0786 0001092  80.9567 279.1559 15.34393340151461
